GPS BIIR-2  (PRN 13)    
1 24876U 97035A   17272.27185644  .00000001  00000-0  00000+0 0  9997
2 24876  55.5313 223.0164 0032839  99.8956 260.4625  2.00565452147916
GPS BIIR-3  (PRN 11)    
1 25933U 99055A   17272.53652228 -.00000006  00000-0  00000+0 0  9998
2 25933  51.7067  73.0708 0168311  97.4391  21.9934  2.00556284131733
GPS BIIR-4  (PRN 20)    
1 26360U 00025A   17272.46815619 -.00000010  00000-0  00000+0 0  9994
2 26360  53.1335 150.5409 0043478  96.3212  76.6281  2.00555211127429
GPS BIIR-5  (PRN 28)    
1 26407U 00040A   17272.39696480 -.00000070  00000-0  00000+0 0  9994
2 26407  56.5965 341.0864 0201272 270.4947 134.2281  2.00565975126100
GPS BIIR-6  (PRN 14)    
1 26605U 00071A   17272.30324086 -.00000003  00000-0  00000+0 0  9995
2 26605  55.1030 220.7068 0095494 248.8705 356.0883  2.00560590123708
GPS BIIR-7  (PRN 18)    
1 26690U 01004A   17272.46438273 -.00000013  00000-0  00000+0 0  9998
2 26690  53.0539 153.4726 0183433 258.1677 215.6536  2.00567987122104
GPS BIIR-8  (PRN 16)    
1 27663U 03005A   17269.23149529 -.00000086  00000-0  00000+0 0  9996
2 27663  56.6653 340.9548 0091804  25.0553   8.3696  2.00553308107402
GPS BIIR-9  (PRN 21)    
1 27704U 03010A   17272.17149188  .00000020  00000-0  00000+0 0  9993
2 27704  53.9222  93.9050 0241882 266.1306  55.9086  2.00572265106267
GPS BIIR-10 (PRN 22)    
1 28129U 03058A   17271.96723692 -.00000017  00000-0  00000+0 0  9998
2 28129  52.9443 153.4722 0074547 264.3300  94.8946  2.00558084100957
GPS BIIR-11 (PRN 19)    
1 28190U 04009A   17272.47502147 -.00000049  00000-0  00000+0 0  9995
2 28190  56.0595  41.7945 0098043  60.9615 310.2152  2.00563212 99141
GPS BIIR-12 (PRN 23)    
1 28361U 04023A   17272.43121640 -.00000011  00000-0  00000+0 0  9991
2 28361  54.0926 215.7085 0120309 222.1528  27.1678  2.00563077 97224
GPS BIIR-13 (PRN 02)    
1 28474U 04045A   17271.88338066  .00000018  00000-0  00000+0 0  9996
2 28474  54.2983  93.4289 0172986 248.3118 328.4843  2.00573177 94583
GPS BIIRM-1 (PRN 17)    
1 28874U 05038A   17272.37956374 -.00000053  00000-0  00000+0 0  9996
2 28874  56.2118  39.0750 0121405 254.6571  69.5039  2.00561960 87995
GPS BIIRM-2 (PRN 31)    
1 29486U 06042A   17272.25673141  .00000025  00000-0  00000+0 0  9995
2 29486  55.3356 278.1224 0086145 344.8559 167.6717  2.00550235 80708
GPS BIIRM-3 (PRN 12)    
1 29601U 06052A   17271.98575628 -.00000071  00000-0  00000+0 0  9997
2 29601  56.6378 339.7658 0063453  51.1099 309.5100  2.00559657 79612
GPS BIIRM-4 (PRN 15)    
1 32260U 07047A   17271.80366543 -.00000013  00000-0  00000+0 0  9998
2 32260  53.2182 211.9904 0095394  33.7658 326.8313  2.00569315 72998
GPS BIIRM-5 (PRN 29)    
1 32384U 07062A   17269.68488977 -.00000057  00000-0  00000+0 0  9999
2 32384  56.2775  39.7695 0003335  27.3698  21.8416  2.00577090 71686
GPS BIIRM-6 (PRN 07)    
1 32711U 08012A   17272.21110651  .00000024  00000-0  00000+0 0  9996
2 32711  55.0654 277.4663 0112010 214.4933 144.8005  2.00558319 69917
GPS BIIRM-8 (PRN 05)    
1 35752U 09043A   17272.48055052 -.00000013  00000-0  00000+0 0  9990
2 35752  54.2653 155.2896 0050895  31.8264 186.6636  2.00576154 59501
GPS BIIF-1  (PRN 25)    
1 36585U 10022A   17272.42502005 -.00000065  00000-0  00000+0 0  9990
2 36585  55.9398 336.4937 0063976  45.7388 242.1122  2.00555256 53753
GPS BIIF-2  (PRN 01)    
1 37753U 11036A   17272.37685015  .00000028  00000-0  00000+0 0  9999
2 37753  55.5028  96.6192 0069291  34.3264 303.2485  2.00563078 45436
GPS BIIF-3  (PRN 24)    
1 38833U 12053A   17271.89873443  .00000022  00000-0  00000+0 0  9993
2 38833  54.0943 274.2937 0058825  24.7126 335.5898  2.00563301 36499
GPS BIIF-4  (PRN 27)    
1 39166U 13023A   17272.25022390 -.00000059  00000-0  00000-0 0  9991
2 39166  55.9163  36.0612 0048563  20.0138 340.1827  2.00564235 32045
GPS BIIF-5  (PRN 30)    
1 39533U 14008A   17272.25301048  .00000020  00000-0  00000+0 0  9999
2 39533  54.2456 279.5908 0030803 189.2619 170.7100  2.00569251 26397
GPS BIIF-6  (PRN 06)    
1 39741U 14026A   17272.53390786  .00000030  00000-0  00000+0 0  9999
2 39741  55.4888  96.1341 0007719 287.0126  72.9618  2.00554235 24687
GPS BIIF-7  (PRN 09)    
1 40105U 14045A   17272.12259027 -.00000008  00000-0  00000+0 0  9999
2 40105  54.6170 215.6837 0006209 111.0952 248.9625  2.00552429 23126
GPS BIIF-8  (PRN 03)    
1 40294U 14068A   17271.99866144 -.00000016  00000-0  00000+0 0  9990
2 40294  55.0140 156.3704 0009302  14.4130 345.6867  2.00566330 21343
GPS BIIF-9  (PRN 26)    
1 40534U 15013A   17269.14663674 -.00000084  00000-0  00000+0 0  9990
2 40534  54.8923 335.6170 0019468 351.8381   8.1873  2.00552317 18350
GPS BIIF-10  (PRN 08)   
1 40730U 15033A   17269.30003806 -.00000066  00000-0  00000+0 0  9993
2 40730  55.4486  35.8039 0027787 319.9520  39.8496  2.00561573 16113
GPS BIIF-11  (PRN 10)   
1 41019U 15062A   17271.84718711 -.00000017  00000-0  00000+0 0  9992
2 41019  55.0220 156.1688 0028630 200.4624 159.4956  2.00563880 13985
GPS BIIF-12  (PRN 32)   
1 41328U 16007A   17271.93948642 -.00000007  00000-0  00000+0 0  9992
2 41328  54.8723 215.9093 0015565 219.6282 140.2495  2.00552741 12048
